{
  "type": "FeatureCollection",
  "features": [
    {
      "type": "Feature",
      "properties": {
        "norad_id": 66473,
        "name": "STARLINK-35568",
        "group": "last-30-days",
        "lat": -20.263960746262438,
        "lon": -38.33896140253996,
        "alt_km": 405.4903619120778,
        "timestamp": "2025-12-04T15:47:52.868942+00:00",
        "meta_object_name": "STARLINK-35568",
        "meta_object_id": "2025-262T",
        "meta_epoch": "2025-12-04T08:00:01.999872",
        "meta_mean_motion": 15.55859261,
        "meta_eccentricity": 0.00011835,
        "meta_inclination": 42.9994,
        "meta_ra_of_asc_node": 120.2335,
        "meta_arg_of_pericenter": 266.4053,
        "meta_mean_anomaly": 283.0122,
        "meta_ephemeris_type": 0,
        "meta_classification_type": "U",
        "meta_norad_cat_id": 66473,
        "meta_element_set_no": 999,
        "meta_rev_at_epoch": 428,
        "meta_bstar": -0.033940096,
        "meta_mean_motion_dot": -0.02140672,
        "meta_mean_motion_ddot": 0,
        "tle_line1": "1 66473U 25262T   25338.33335648 -.02140672  00000+0 -33940-1 0  9992",
        "tle_line2": "2 66473  42.9994 120.2335 0001183 266.4053 283.0122 15.55859261  4289"
      },
      "geometry": {
        "type": "Point",
        "coordinates": [
          -38.33896140253996,
          -20.263960746262438
        ]
      }
    },
    {
      "type": "Feature",
      "properties": {
        "norad_id": 66474,
        "name": "STARLINK-35620",
        "group": "last-30-days",
        "lat": -21.457087640176603,
        "lon": -36.7370818750233,
        "alt_km": 405.54441308524747,
        "timestamp": "2025-12-04T15:47:52.868952+00:00",
        "meta_object_name": "STARLINK-35620",
        "meta_object_id": "2025-262U",
        "meta_epoch": "2025-12-04T08:00:01.999872",
        "meta_mean_motion": 15.55858089,
        "meta_eccentricity": 0.00011344,
        "meta_inclination": 42.9994,
        "meta_ra_of_asc_node": 120.2283,
        "meta_arg_of_pericenter": 263.7846,
        "meta_mean_anomaly": 287.5525,
        "meta_ephemeris_type": 0,
        "meta_classification_type": "U",
        "meta_norad_cat_id": 66474,
        "meta_element_set_no": 999,
        "meta_rev_at_epoch": 428,
        "meta_bstar": -0.033947044,
        "meta_mean_motion_dot": -0.02140944,
        "meta_mean_motion_ddot": 0,
        "tle_line1": "1 66474U 25262U   25338.33335648 -.02140944  00000+0 -33947-1 0  9992",
        "tle_line2": "2 66474  42.9994 120.2283 0001134 263.7846 287.5525 15.55858089  4281"
      },
      "geometry": {
        "type": "Point",
        "coordinates": [
          -36.7370818750233,
          -21.457087640176603
        ]
      }
    },
    {
      "type": "Feature",
      "properties": {
        "norad_id": 66475,
        "name": "STARLINK-35538",
        "group": "last-30-days",
        "lat": -22.633169206167803,
        "lon": -35.109501440903216,
        "alt_km": 405.5871188753208,
        "timestamp": "2025-12-04T15:47:52.868964+00:00",
        "meta_object_name": "STARLINK-35538",
        "meta_object_id": "2025-262V",
        "meta_epoch": "2025-12-04T08:00:01.999872",
        "meta_mean_motion": 15.55857149,
        "meta_eccentricity": 0.0001157,
        "meta_inclination": 42.9992,
        "meta_ra_of_asc_node": 120.2243,
        "meta_arg_of_pericenter": 262.7419,
        "meta_mean_anomaly": 290.512,
        "meta_ephemeris_type": 0,
        "meta_classification_type": "U",
        "meta_norad_cat_id": 66475,
        "meta_element_set_no": 999,
        "meta_rev_at_epoch": 428,
        "meta_bstar": -0.033903419,
        "meta_mean_motion_dot": -0.02138452,
        "meta_mean_motion_ddot": 0,
        "tle_line1": "1 66475U 25262V   25338.33335648 -.02138452  00000+0 -33903-1 0  9996",
        "tle_line2": "2 66475  42.9992 120.2243 0001157 262.7419 290.5120 15.55857149  4287"
      },
      "geometry": {
        "type": "Point",
        "coordinates": [
          -35.109501440903216,
          -22.633169206167803
        ]
      }
    },
    {
      "type": "Feature",
      "properties": {
        "norad_id": 66476,
        "name": "STARLINK-35372",
        "group": "last-30-days",
        "lat": -23.793115516584642,
        "lon": -33.45491716893073,
        "alt_km": 405.59852414761826,
        "timestamp": "2025-12-04T15:47:52.868974+00:00",
        "meta_object_name": "STARLINK-35372",
        "meta_object_id": "2025-262W",
        "meta_epoch": "2025-12-04T08:00:01.999872",
        "meta_mean_motion": 15.55858095,
        "meta_eccentricity": 0.00011925,
        "meta_inclination": 42.9996,
        "meta_ra_of_asc_node": 120.219,
        "meta_arg_of_pericenter": 259.9756,
        "meta_mean_anomaly": 295.1951,
        "meta_ephemeris_type": 0,
        "meta_classification_type": "U",
        "meta_norad_cat_id": 66476,
        "meta_element_set_no": 999,
        "meta_rev_at_epoch": 418,
        "meta_bstar": -0.033924559,
        "meta_mean_motion_dot": -0.02139725,
        "meta_mean_motion_ddot": 0,
        "tle_line1": "1 66476U 25262W   25338.33335648 -.02139725  00000+0 -33925-1 0  9995",
        "tle_line2": "2 66476  42.9996 120.2190 0001192 259.9756 295.1951 15.55858095  4187"
      },
      "geometry": {
        "type": "Point",
        "coordinates": [
          -33.45491716893073,
          -23.793115516584642
        ]
      }
    },
    {
      "type": "Feature",
      "properties": {
        "norad_id": 66477,
        "name": "STARLINK-35354",
        "group": "last-30-days",
        "lat": -26.055184098969377,
        "lon": -30.05751867236655,
        "alt_km": 405.7785717262377,
        "timestamp": "2025-12-04T15:47:52.868987+00:00",
        "meta_object_name": "STARLINK-35354",
        "meta_object_id": "2025-262X",
        "meta_epoch": "2025-12-04T08:00:01.999872",
        "meta_mean_motion": 15.55858019,
        "meta_eccentricity": 0.00012112,
        "meta_inclination": 42.9996,
        "meta_ra_of_asc_node": 120.2087,
        "meta_arg_of_pericenter": 264.4162,
        "meta_mean_anomaly": 294.5883,
        "meta_ephemeris_type": 0,
        "meta_classification_type": "U",
        "meta_norad_cat_id": 66477,
        "meta_element_set_no": 999,
        "meta_rev_at_epoch": 428,
        "meta_bstar": -0.033940059,
        "meta_mean_motion_dot": -0.021406,
        "meta_mean_motion_ddot": 0,
        "tle_line1": "1 66477U 25262X   25338.33335648 -.02140600  00000+0 -33940-1 0  9997",
        "tle_line2": "2 66477  42.9996 120.2087 0001211 264.4162 294.5883 15.55858019  4281"
      },
      "geometry": {
        "type": "Point",
        "coordinates": [
          -30.05751867236655,
          -26.055184098969377
        ]
      }
    },
    {
      "type": "Feature",
      "properties": {
        "norad_id": 66478,
        "name": "STARLINK-35283",
        "group": "last-30-days",
        "lat": -27.157391721809912,
        "lon": -28.307706194459104,
        "alt_km": 405.73374684226474,
        "timestamp": "2025-12-04T15:47:52.869024+00:00",
        "meta_object_name": "STARLINK-35283",
        "meta_object_id": "2025-262Y",
        "meta_epoch": "2025-12-04T08:00:01.999872",
        "meta_mean_motion": 15.55857263,
        "meta_eccentricity": 0.0001237,
        "meta_inclination": 42.9996,
        "meta_ra_of_asc_node": 120.2035,
        "meta_arg_of_pericenter": 258.0713,
        "meta_mean_anomaly": 302.8507,
        "meta_ephemeris_type": 0,
        "meta_classification_type": "U",
        "meta_norad_cat_id": 66478,
        "meta_element_set_no": 999,
        "meta_rev_at_epoch": 428,
        "meta_bstar": -0.033906375,
        "meta_mean_motion_dot": -0.02138679,
        "meta_mean_motion_ddot": 0,
        "tle_line1": "1 66478U 25262Y   25338.33335648 -.02138679  00000+0 -33906-1 0  9993",
        "tle_line2": "2 66478  42.9996 120.2035 0001237 258.0713 302.8507 15.55857263  4280"
      },
      "geometry": {
        "type": "Point",
        "coordinates": [
          -28.307706194459104,
          -27.157391721809912
        ]
      }
    },
    {
      "type": "Feature",
      "properties": {
        "norad_id": 66479,
        "name": "STARLINK-35581",
        "group": "last-30-days",
        "lat": -24.932587491451304,
        "lon": -31.774483541411612,
        "alt_km": 405.7368484210974,
        "timestamp": "2025-12-04T15:47:52.869036+00:00",
        "meta_object_name": "STARLINK-35581",
        "meta_object_id": "2025-262Z",
        "meta_epoch": "2025-12-04T08:00:01.999872",
        "meta_mean_motion": 15.55859792,
        "meta_eccentricity": 0.00012294,
        "meta_inclination": 42.9996,
        "meta_ra_of_asc_node": 120.2131,
        "meta_arg_of_pericenter": 266.101,
        "meta_mean_anomaly": 290.9846,
        "meta_ephemeris_type": 0,
        "meta_classification_type": "U",
        "meta_norad_cat_id": 66479,
        "meta_element_set_no": 999,
        "meta_rev_at_epoch": 428,
        "meta_bstar": -0.033970335,
        "meta_mean_motion_dot": -0.02142432,
        "meta_mean_motion_ddot": 0,
        "tle_line1": "1 66479U 25262Z   25338.33335648 -.02142432  00000+0 -33970-1 0  9997",
        "tle_line2": "2 66479  42.9996 120.2131 0001229 266.1010 290.9846 15.55859792  4281"
      },
      "geometry": {
        "type": "Point",
        "coordinates": [
          -31.774483541411612,
          -24.932587491451304
        ]
      }
    }
  ]
}